{"type": "FeatureCollection", "features": [{"type": "Feature", "properties": {"name": "Departamento Marcos Juárez", "admin_level": 5, "source": "OpenStreetMap contributors, via Nominatim", "osm_id": 1994997, "osm_type": "relation"}, "geometry": {"type": "Polygon", "coordinates": [[[-62.8053575, -33.8960467], [-62.791093, -33.8986253], [-62.6449684, -33.9250349], [-62.6445276, -33.9250894], [-62.6444105, -33.9251401], [-62.601684, -33.9327555], [-62.5746274, -33.9375299], [-62.5596267, -33.9402642], [-62.5594478, -33.9402913], [-62.5592192, -33.940289], [-62.5591048, -33.9403286], [-62.5521014, -33.9415952], [-62.5514667, -33.9416899], [-62.5508554, -33.9417944], [-62.5505199, -33.9418605], [-62.5500744, -33.941963], [-62.5498937, -33.9420209], [-62.549798, -33.9420787], [-62.5491868, -33.9423311], [-62.5486179, -33.9424345], [-62.544688, -33.943106], [-62.5441414, -33.9431994], [-62.4714828, -33.8479459], [-62.4705555, -33.8467699], [-62.4640421, -33.8381766], [-62.445044, -33.8130113], [-62.4286433, -33.7915607], [-62.4247701, -33.7864553], [-62.4149909, -33.7736397], [-62.4112758, -33.768747], [-62.3143133, -33.6407753], [-62.3031236, -33.6259733], [-62.2992291, -33.6207901], [-62.290167, -33.6088125], [-62.2843686, -33.6011478], [-62.2832494, -33.5996682], [-62.2705613, -33.5828337], [-62.2670445, -33.5781669], [-62.2629305, -33.5727075], [-62.2583494, -33.5666038], [-62.2571935, -33.5651609], [-62.2523976, -33.5587856], [-62.2480672, -33.5530911], [-62.2411816, -33.5439234], [-62.2371075, -33.5385068], [-62.2327357, -33.5326725], [-62.2314771, -33.5310669], [-62.2167175, -33.5113361], [-62.208944, -33.5011775], [-62.2087882, -33.5009475], [-62.2086301, -33.500732], [-62.1946833, -33.4822443], [-62.1734674, -33.4539664], [-62.1574367, -33.4325936], [-62.1572253, -33.4323139], [-62.1440513, -33.4148842], [-62.1385534, -33.4076093], [-62.1320772, -33.3989077], [-62.1311836, -33.3976987], [-62.1242118, -33.3883418], [-62.0648057, -33.3088517], [-62.0103416, -33.2362297], [-61.9679559, -33.182874], [-61.9203523, -33.1202006], [-61.9185739, -33.119685], [-61.9180503, -33.1196173], [-61.9141757, -33.1191165], [-61.9113315, -33.1185035], [-61.9087801, -33.1184509], [-61.9041582, -33.1174175], [-61.900212, -33.1145975], [-61.8967549, -33.1125479], [-61.8944043, -33.1098163], [-61.8936136, -33.1090735], [-61.8915535, -33.1078029], [-61.8909531, -33.1068846], [-61.8907189, -33.1066744], [-61.8902346, -33.1065047], [-61.8899718, -33.1061884], [-61.8891984, -33.1061037], [-61.8890514, -33.1061297], [-61.8887269, -33.106044], [-61.8886364, -33.1059122], [-61.8887658, -33.1056123], [-61.8891813, -33.1053526], [-61.8894495, -33.1053079], [-61.8895659, -33.1051148], [-61.8895796, -33.104906], [-61.889669, -33.1046794], [-61.8896622, -33.1044763], [-61.8894672, -33.1043547], [-61.8890904, -33.1042408], [-61.8885627, -33.1038952], [-61.8878042, -33.1037589], [-61.887228, -33.1035192], [-61.886737, -33.103335], [-61.886357, -33.1032674], [-61.8860756, -33.1031686], [-61.8856414, -33.1028278], [-61.8855259, -33.1026321], [-61.8853882, -33.1025077], [-61.8850745, -33.1024051], [-61.8847557, -33.1023296], [-61.8845981, -33.1022266], [-61.8845107, -33.1020425], [-61.8843254, -33.1017163], [-61.8826098, -33.099367], [-61.8810789, -33.0973986], [-61.8799602, -33.0958248], [-61.8798676, -33.0957994], [-61.879513, -33.09577], [-61.8793187, -33.0957078], [-61.8791205, -33.0955276], [-61.8788421, -33.0951804], [-61.8786851, -33.094859], [-61.8786155, -33.0947564], [-61.8782465, -33.0945302], [-61.8781433, -33.09437], [-61.8780925, -33.0942208], [-61.8780108, -33.0936478], [-61.8779313, -33.0934793], [-61.8777998, -33.0933504], [-61.8774585, -33.0931879], [-61.8773382, -33.0930925], [-61.8772252, -33.0928916], [-61.8771214, -33.0927606], [-61.8769093, -33.0925924], [-61.8765543, -33.0923603], [-61.8764515, -33.0922411], [-61.8763912, -33.0921159], [-61.8763628, -33.091775], [-61.8763835, -33.0912862], [-61.8764801, -33.0909698], [-61.876481, -33.0907896], [-61.8764317, -33.0906018], [-61.8762193, -33.0902814], [-61.8756268, -33.0894471], [-61.8754819, -33.0890194], [-61.8753519, -33.0884133], [-61.8741752, -33.0845169], [-61.8739781, -33.0838683], [-61.868646, -33.0765591], [-61.8684537, -33.0763499], [-61.8672094, -33.0751017], [-61.8669221, -33.0747399], [-61.8666757, -33.0746074], [-61.8634877, -33.0713903], [-61.8632338, -33.0709977], [-61.8614881, -33.0688957], [-61.8610105, -33.0684032], [-61.8605995, -33.0680705], [-61.8595276, -33.0673716], [-61.8546621, -33.0638716], [-61.8544292, -33.0636751], [-61.8541286, -33.0635405], [-61.8523901, -33.0622802], [-61.8490491, -33.0572865], [-61.8487506, -33.057078], [-61.8485355, -33.0567234], [-61.8485118, -33.0565527], [-61.8482247, -33.0561712], [-61.8433708, -33.0524413], [-61.8414306, -33.0515464], [-61.8396693, -33.0510353], [-61.8392176, -33.050967], [-61.8391268, -33.0509307], [-61.8390424, -33.0507988], [-61.8389474, -33.0506504], [-61.8380805, -33.0500103], [-61.8243993, -33.0413363], [-61.8184743, -33.0350844], [-61.8139456, -33.0303508], [-61.8129482, -33.0292067], [-61.8111691, -33.0272509], [-61.8103588, -33.0262582], [-61.8102957, -33.0261524], [-61.8102592, -33.0258893], [-61.8104031, -33.0241136], [-61.8103846, -33.0240718], [-61.8103579, -33.0240534], [-61.8103029, -33.0240388], [-61.8099768, -33.0240975], [-61.80974, -33.0240467], [-61.8095512, -33.0240275], [-61.8092697, -33.0240424], [-61.8089145, -33.0239597], [-61.8086303, -33.0237989], [-61.8051896, -33.0211092], [-61.8049203, -33.0208901], [-61.8047771, -33.0208038], [-61.8046127, -33.0207939], [-61.8045367, -33.0208037], [-61.804443, -33.0208518], [-61.8043676, -33.0208656], [-61.8039934, -33.0207155], [-61.8038829, -33.0206915], [-61.803459, -33.0205011], [-61.8033131, -33.0202453], [-61.8032314, -33.0201237], [-61.8029707, -33.0199565], [-61.8026536, -33.0196], [-61.8022835, -33.0193219], [-61.802114, -33.0192027], [-61.8019492, -33.0191166], [-61.8016653, -33.019038], [-61.8014111, -33.018838], [-61.8014157, -33.0186569], [-61.8013336, -33.0183763], [-61.8010748, -33.0177949], [-61.8004724, -33.0170264], [-61.8002555, -33.0168754], [-61.7981425, -33.0158385], [-61.7975542, -33.0156712], [-61.7973812, -33.0156766], [-61.7972935, -33.0155915], [-61.7972401, -33.0154555], [-61.7970012, -33.0152502], [-61.7966922, -33.0151281], [-61.7965734, -33.0149712], [-61.7964011, -33.0147445], [-61.7960803, -33.0145502], [-61.7959109, -33.0144107], [-61.7957297, -33.0144181], [-61.7950523, -33.0141914], [-61.7946483, -33.0140644], [-61.7943631, -33.0141342], [-61.7938713, -33.0144983], [-61.7938235, -33.0145169], [-61.7935197, -33.0146351], [-61.7936057, -33.0137782], [-61.7937881, -33.012955], [-61.7939919, -33.0126041], [-61.7942601, -33.0120373], [-61.7944425, -33.011682], [-61.7944478, -33.0114971], [-61.7943513, -33.0112456], [-61.7940348, -33.0107823], [-61.7936754, -33.0103684], [-61.7933536, -33.01013], [-61.7925757, -33.0097116], [-61.792227, -33.0094687], [-61.7920768, -33.0092123], [-61.7919481, -33.0087625], [-61.7919427, -33.0083801], [-61.7920339, -33.0080427], [-61.7920983, -33.0077728], [-61.7920543, -33.0075915], [-61.7919856, -33.0073814], [-61.7918462, -33.0071475], [-61.791636, -33.0070729], [-61.7913687, -33.006963], [-61.7906392, -33.0067966], [-61.7899096, -33.0066616], [-61.7893678, -33.0065806], [-61.7889055, -33.0064776], [-61.7885417, -33.0064142], [-61.7878819, -33.0062927], [-61.7876395, -33.006193], [-61.7875224, -33.0059958], [-61.7874259, -33.0057574], [-61.7874345, -33.0056109], [-61.787442, -33.005483], [-61.7875273, -33.0052001], [-61.787619, -33.0050421], [-61.7878443, -33.0045067], [-61.7879838, -33.0040704], [-61.7880642, -33.003724], [-61.7880947, -33.0035368], [-61.7881447, -33.0029007], [-61.7882145, -33.0023248], [-61.7882145, -33.0017715], [-61.7881393, -33.001533], [-61.7881072, -33.0010921], [-61.7880964, -33.0006872], [-61.7882198, -33.0004083], [-61.7884773, -32.9996885], [-61.7887455, -32.9990001], [-61.788798, -32.9985972], [-61.7889172, -32.9983297], [-61.7891264, -32.9977899], [-61.7893142, -32.9972815], [-61.7894107, -32.9970025], [-61.7895287, -32.9965436], [-61.7894805, -32.9962287], [-61.789459, -32.9958642], [-61.7895502, -32.9956663], [-61.7896414, -32.9952208], [-61.7896628, -32.9948114], [-61.7895931, -32.9944335], [-61.7894965, -32.993943], [-61.7892981, -32.9933491], [-61.7890835, -32.9930612], [-61.788826, -32.9926427], [-61.7882681, -32.9921343], [-61.7880374, -32.9918149], [-61.7879355, -32.9914729], [-61.7879891, -32.9912164], [-61.7880213, -32.991023], [-61.7880642, -32.990888], [-61.7881705, -32.9908072], [-61.7883486, -32.990708], [-61.7886114, -32.9905775], [-61.7890494, -32.990503], [-61.7895824, -32.9904875], [-61.790092, -32.990456], [-61.7904637, -32.9903752], [-61.7913419, -32.9901366], [-61.7914438, -32.9900466], [-61.7916691, -32.9896686], [-61.7917657, -32.9894796], [-61.7919052, -32.9890972], [-61.7919964, -32.9887912], [-61.7919803, -32.9883818], [-61.7918891, -32.9879813], [-61.7915189, -32.9874098], [-61.7912936, -32.9871084], [-61.7908662, -32.9863842], [-61.7904492, -32.9850276], [-61.789713, -32.983991], [-61.7894534, -32.9827856], [-61.7898668, -32.9805237], [-61.7895046, -32.9781625], [-61.7897357, -32.9774926], [-61.7908803, -32.9766645], [-61.7912143, -32.9761933], [-61.7914648, -32.9754272], [-61.7913165, -32.9747799], [-61.7908597, -32.9742569], [-61.7901181, -32.9739119], [-61.7888854, -32.9736937], [-61.7882221, -32.9732137], [-61.7878162, -32.972681], [-61.7873159, -32.9719013], [-61.7875386, -32.9703513], [-61.7872245, -32.9692239], [-61.7872956, -32.968516], [-61.7874424, -32.9683303], [-61.7875316, -32.9681749], [-61.7876145, -32.9679502], [-61.7876973, -32.9675772], [-61.7877415, -32.9673942], [-61.7878216, -32.9670745], [-61.7878878, -32.9667502], [-61.7878658, -32.9665393], [-61.7877912, -32.9663216], [-61.7875648, -32.9658837], [-61.7870926, -32.9648736], [-61.7869545, -32.9645841], [-61.7868745, -32.9642852], [-61.7868027, -32.9640674], [-61.7866177, -32.9637176], [-61.7865542, -32.9635925], [-61.7865348, -32.9635091], [-61.7865431, -32.9634072], [-61.7865845, -32.963289], [-61.7867281, -32.9630643], [-61.7869325, -32.962828], [-61.7871589, -32.9626542], [-61.7873632, -32.9625569], [-61.7877636, -32.9624387], [-61.7881612, -32.9622882], [-61.7884153, -32.9621723], [-61.7887383, -32.9619545], [-61.7890531, -32.9616696], [-61.7894061, -32.9612447], [-61.7898097, -32.9608124], [-61.7900499, -32.9602749], [-61.7901631, -32.9598833], [-61.7902239, -32.9596841], [-61.7903095, -32.959559], [-61.790384, -32.9594918], [-61.7905414, -32.9593921], [-61.7906436, -32.9593018], [-61.790743, -32.959179], [-61.7908231, -32.9589867], [-61.7909528, -32.9586507], [-61.790986, -32.9584052], [-61.7909584, -32.9582291], [-61.7907651, -32.9578213], [-61.7904144, -32.9573556], [-61.7901907, -32.9570451], [-61.7899422, -32.9566327], [-61.7896606, -32.956313], [-61.78939, -32.9560025], [-61.7890395, -32.9556777], [-61.788828, -32.9554558], [-61.7886909, -32.9553066], [-61.7885707, -32.955121], [-61.7884914, -32.9549173], [-61.7884698, -32.9547398], [-61.7884433, -32.9543606], [-61.7883977, -32.9540842], [-61.7884097, -32.9538805], [-61.7884049, -32.9537373], [-61.7883832, -32.9534993], [-61.7883472, -32.9532734], [-61.7882655, -32.9530676], [-61.7879409, -32.9524907], [-61.7878472, -32.9522527], [-61.7878256, -32.9518977], [-61.787828, -32.9516254], [-61.7878448, -32.9513289], [-61.7878688, -32.9512099], [-61.7878496, -32.9510788], [-61.7877775, -32.9508912], [-61.7875443, -32.9505422], [-61.7873905, -32.9502477], [-61.787239, -32.9500278], [-61.7871693, -32.9498887], [-61.7871429, -32.9497535], [-61.787078, -32.9496123], [-61.7869145, -32.9492532], [-61.7868015, -32.949106], [-61.7867342, -32.9489325], [-61.7866621, -32.9485452], [-61.7866333, -32.9483092], [-61.7865708, -32.9479501], [-61.7865347, -32.9477565], [-61.7864506, -32.9475185], [-61.7862366, -32.9469617], [-61.7861741, -32.9467822], [-61.7860011, -32.9462234], [-61.7859145, -32.9459551], [-61.7858737, -32.9456949], [-61.7857823, -32.9454629], [-61.7855876, -32.9450695], [-61.7854362, -32.9446822], [-61.7852391, -32.9441315], [-61.7851717, -32.943958], [-61.7850612, -32.9437099], [-61.784941, -32.943494], [-61.7848592, -32.9432842], [-61.7847535, -32.9430744], [-61.7846934, -32.9428606], [-61.7844987, -32.942435], [-61.7843448, -32.9420617], [-61.7842679, -32.9418842], [-61.7841766, -32.9416563], [-61.7841093, -32.9415009], [-61.7840179, -32.9413335], [-61.783816, -32.9410047], [-61.7835972, -32.9407041], [-61.7835227, -32.9406113], [-61.7835107, -32.9405205], [-61.7835371, -32.9403873], [-61.7835948, -32.9402401], [-61.7836237, -32.9400061], [-61.7836309, -32.9396349], [-61.7837102, -32.9392233], [-61.7837343, -32.9390498], [-61.7836814, -32.9388864], [-61.783566, -32.9386786], [-61.7834674, -32.9385919], [-61.7833521, -32.9385313], [-61.7832391, -32.9384567], [-61.7829843, -32.9382529], [-61.782804, -32.9380835], [-61.7826453, -32.937918], [-61.7824987, -32.9376719], [-61.782304, -32.9373774], [-61.7821309, -32.9370667], [-61.7819026, -32.9367177], [-61.781667, -32.9363444], [-61.7814867, -32.9360438], [-61.7812752, -32.9357957], [-61.781042, -32.9355415], [-61.7808016, -32.9352994], [-61.7806021, -32.9349544], [-61.7804843, -32.9347587], [-61.7803569, -32.9344702], [-61.7802968, -32.9341111], [-61.7802992, -32.93376], [-61.7803136, -32.9335361], [-61.7802463, -32.9331931], [-61.7801574, -32.9329349], [-61.7799963, -32.9326463], [-61.7798761, -32.9324244], [-61.7796309, -32.9320249], [-61.7794579, -32.9317405], [-61.7792535, -32.9313914], [-61.7791646, -32.9312219], [-61.7790516, -32.9309092], [-61.7789699, -32.9307478], [-61.778941, -32.9305662], [-61.7789026, -32.9302374], [-61.7788641, -32.9300376], [-61.7787848, -32.9297673], [-61.7787271, -32.9294707], [-61.7786838, -32.929394], [-61.7784435, -32.9290732], [-61.7782704, -32.9288331], [-61.7780997, -32.9285809], [-61.7778064, -32.9281471], [-61.7774459, -32.92757], [-61.777244, -32.9272613], [-61.7770661, -32.9270535], [-61.7767608, -32.9268013], [-61.7766959, -32.9266681], [-61.7766358, -32.9265209], [-61.7765228, -32.9262686], [-61.7763882, -32.9259277], [-61.7761983, -32.9254636], [-61.7760565, -32.9250378], [-61.7759603, -32.9246726], [-61.7759603, -32.9243942], [-61.775994, -32.9241137], [-61.7759723, -32.9237768], [-61.7758762, -32.9234095], [-61.775756, -32.9231089], [-61.7755949, -32.9227881], [-61.7754988, -32.9226206], [-61.7750445, -32.9220838], [-61.7749363, -32.9219285], [-61.7748762, -32.9217751], [-61.7748425, -32.9216641], [-61.7748522, -32.9214583], [-61.7748137, -32.9212182], [-61.7746983, -32.9207602], [-61.7746598, -32.9202194], [-61.7745925, -32.9198582], [-61.7745132, -32.9195777], [-61.7743281, -32.9191802], [-61.7741575, -32.9188937], [-61.7740541, -32.9186677], [-61.7739808, -32.9183424], [-61.7737945, -32.917915], [-61.7736887, -32.9176829], [-61.7735709, -32.9174973], [-61.7734075, -32.9173036], [-61.773131, -32.917011], [-61.7730012, -32.9168051], [-61.7728714, -32.9165045], [-61.7728185, -32.9163632], [-61.7728089, -32.9160888], [-61.7729219, -32.9155318], [-61.7729339, -32.9152251], [-61.7729339, -32.9149022], [-61.772893, -32.914541], [-61.7728305, -32.9143211], [-61.7727248, -32.9140204], [-61.7725613, -32.9136632], [-61.7724195, -32.9132495], [-61.7723498, -32.9129589], [-61.7723305, -32.9125392], [-61.7723618, -32.9121356], [-61.7724315, -32.9117844], [-61.7724772, -32.9114959], [-61.7725132, -32.9111488], [-61.7725541, -32.9107028], [-61.7725565, -32.9104041], [-61.7725397, -32.9100045], [-61.772482, -32.9095666], [-61.7724267, -32.9092235], [-61.7724219, -32.9090157], [-61.772458, -32.9087392], [-61.7726262, -32.9082569], [-61.772756, -32.90794], [-61.7728762, -32.9074859], [-61.7728618, -32.9072155], [-61.7728666, -32.9067857], [-61.7728786, -32.906602], [-61.77297, -32.9063316], [-61.7730228, -32.9060914], [-61.7730445, -32.9058371], [-61.7730349, -32.90549], [-61.7729988, -32.9051651], [-61.7728834, -32.9048967], [-61.7728281, -32.904717], [-61.7728281, -32.904604], [-61.7728834, -32.9040026], [-61.7728714, -32.9037564], [-61.772845, -32.9035182], [-61.7728594, -32.9033992], [-61.7728954, -32.903276], [-61.7729724, -32.9031126], [-61.7730036, -32.9028764], [-61.7729748, -32.9027008], [-61.7728281, -32.9025212], [-61.7726286, -32.9023154], [-61.7724099, -32.9021317], [-61.7721241, -32.9019584], [-61.7717403, -32.9017723], [-61.7716389, -32.9016636], [-61.7715953, -32.9015366], [-61.771597, -32.9014158], [-61.7716705, -32.9012438], [-61.7719782, -32.9008106], [-61.7722021, -32.9006123], [-61.7727873, -32.9001494], [-61.7740995, -32.8993496], [-61.7746796, -32.8989419], [-61.7749452, -32.8986764], [-61.775406, -32.8980482], [-61.775618, -32.8977229], [-61.7761441, -32.8972724], [-61.7766546, -32.8970472], [-61.7769566, -32.8968166], [-61.7772741, -32.8966618], [-61.7774908, -32.8965355], [-61.7776174, -32.8963531], [-61.7777843, -32.8959079], [-61.7780785, -32.8943751], [-61.7781453, -32.8942022], [-61.7783717, -32.8939445], [-61.7784256, -32.8937654], [-61.7784183, -32.8935927], [-61.7782394, -32.8928917], [-61.7780285, -32.8925975], [-61.7775551, -32.8922342], [-61.7774678, -32.8921168], [-61.7773064, -32.8917257], [-61.7772997, -32.8915593], [-61.7775714, -32.8911686], [-61.7778849, -32.8910209], [-61.7781537, -32.8909738], [-61.7791513, -32.8910282], [-61.7796599, -32.8911131], [-61.7804341, -32.8914032], [-61.7807037, -32.8914697], [-61.7812651, -32.8914154], [-61.7816464, -32.8912855], [-61.7826167, -32.8907236], [-61.7835867, -32.8901526], [-61.7841191, -32.8895623], [-61.7844233, -32.8893767], [-61.7850011, -32.8892162], [-61.7855741, -32.8889815], [-61.7858225, -32.8887178], [-61.7860074, -32.8883711], [-61.7860749, -32.8880434], [-61.7862613, -32.8875413], [-61.7877165, -32.8850505], [-61.788138, -32.8845568], [-61.7884825, -32.8840239], [-61.7892441, -32.8824326], [-61.7895236, -32.8815847], [-61.7898222, -32.8810155], [-61.7903955, -32.8803236], [-61.7906947, -32.8798363], [-61.790867, -32.8788998], [-61.7910771, -32.8784192], [-61.7912566, -32.878277], [-61.791692, -32.8781079], [-61.79196, -32.8778914], [-61.7921879, -32.8774691], [-61.7922904, -32.8767983], [-61.7923266, -32.875146], [-61.7924536, -32.8737754], [-61.7926869, -32.8734425], [-61.7927785, -32.8731528], [-61.7926712, -32.8724961], [-61.7924288, -32.8720848], [-61.7922076, -32.8718571], [-61.7903304, -32.8672268], [-61.7900512, -32.8662716], [-61.7898939, -32.865224], [-61.7896763, -32.8647088], [-61.7887636, -32.8636538], [-61.7886939, -32.8634295], [-61.7887632, -32.8632634], [-61.7891063, -32.8630076], [-61.7892468, -32.8628284], [-61.7892849, -32.8625149], [-61.78926, -32.8621288], [-61.7890242, -32.8617109], [-61.7885921, -32.8612281], [-61.7868328, -32.859561], [-61.786652, -32.859176], [-61.7864754, -32.8578976], [-61.7862382, -32.8574921], [-61.7859076, -32.8569355], [-61.7860174, -32.8564544], [-61.7859209, -32.8559347], [-61.7856386, -32.8552994], [-61.7851363, -32.8546331], [-61.7845654, -32.8541811], [-61.7844276, -32.8539633], [-61.7837608, -32.8525557], [-61.7834932, -32.8511165], [-61.7834935, -32.8507415], [-61.7836855, -32.8501593], [-61.7836969, -32.8498479], [-61.7834597, -32.8493871], [-61.7832865, -32.8491431], [-61.7828491, -32.8486948], [-61.7825916, -32.8483155], [-61.7823739, -32.8479484], [-61.7822728, -32.8475335], [-61.7821335, -32.8455871], [-61.7819273, -32.8441826], [-61.7819058, -32.8438857], [-61.7817949, -32.8434823], [-61.7815677, -32.8429061], [-61.7810111, -32.8420107], [-61.7806003, -32.8409596], [-61.7801584, -32.8400678], [-61.7801316, -32.839829], [-61.7801763, -32.8394365], [-61.7801335, -32.8390553], [-61.7798009, -32.8372487], [-61.77963, -32.8358842], [-61.7794545, -32.8353875], [-61.7791475, -32.8347666], [-61.7790554, -32.834482], [-61.7789757, -32.8342124], [-61.7788135, -32.8331566], [-61.7786664, -32.8328376], [-61.7780466, -32.8320391], [-61.7779764, -32.831812], [-61.777773, -32.8308469], [-61.7777072, -32.8304536], [-61.777716, -32.8302244], [-61.7778121, -32.8299992], [-61.7780208, -32.8296375], [-61.7789755, -32.8282059], [-61.7790142, -32.8279194], [-61.7791458, -32.8275812], [-61.7791572, -32.8269549], [-61.7790411, -32.8264067], [-61.7787585, -32.8257522], [-61.7787427, -32.82563], [-61.7787883, -32.8254874], [-61.7789152, -32.8253301], [-61.7796278, -32.8240373], [-61.7798148, -32.8235692], [-61.7800416, -32.8226342], [-61.7801568, -32.8222954], [-61.7802518, -32.8221278], [-61.7811861, -32.8211621], [-61.7813489, -32.8209039], [-61.7814497, -32.820546], [-61.7815089, -32.8193658], [-61.7816025, -32.8191549], [-61.7819984, -32.8185102], [-61.7822367, -32.8179562], [-61.7826302, -32.8165276], [-61.7827325, -32.816237], [-61.7829687, -32.8159186], [-61.7839522, -32.8150619], [-61.7842573, -32.8147702], [-61.7845193, -32.8144423], [-61.7846854, -32.8141574], [-61.7849559, -32.8135323], [-61.7851695, -32.813229], [-61.785292, -32.8130217], [-61.7853576, -32.8127075], [-61.7853787, -32.8122267], [-61.7854038, -32.8113795], [-61.7852919, -32.8099369], [-61.7852373, -32.8086132], [-61.7852088, -32.8078976], [-61.78535, -32.8069858], [-61.7853538, -32.806571], [-61.7852029, -32.8054174], [-61.7848639, -32.8046521], [-61.7848516, -32.8043873], [-61.7849058, -32.8041761], [-61.7849738, -32.8040081], [-61.7851642, -32.8036683], [-61.7855197, -32.8031683], [-61.7859615, -32.8024869], [-61.7861546, -32.8019635], [-61.7864419, -32.8006079], [-61.7864481, -32.8002645], [-61.7863366, -32.7986252], [-61.7864145, -32.798063], [-61.7863944, -32.7977737], [-61.7861391, -32.7968538], [-61.7856964, -32.7959968], [-61.7856999, -32.7958578], [-61.7857146, -32.795705], [-61.7862743, -32.7947771], [-61.7865686, -32.7945549], [-61.7870184, -32.7944164], [-61.7880374, -32.7941772], [-61.7883988, -32.7941977], [-61.7897065, -32.7944278], [-61.7902844, -32.7944291], [-61.790665, -32.7943827], [-61.7913606, -32.7941631], [-61.7915616, -32.7940414], [-61.792348, -32.7931943], [-61.7924929, -32.7928971], [-61.7926731, -32.7919775], [-61.7928093, -32.7907396], [-61.7929661, -32.7902021], [-61.7932532, -32.7897359], [-61.7937875, -32.7891228], [-61.7949451, -32.7874962], [-61.7952234, -32.7868487], [-61.7956055, -32.7863475], [-61.795754, -32.7861038], [-61.7958019, -32.7856425], [-61.7957718, -32.785276], [-61.7956527, -32.7847656], [-61.7954277, -32.784185], [-61.7950051, -32.7834818], [-61.7948636, -32.783274], [-61.7948117, -32.7829609], [-61.7949672, -32.7826116], [-61.7951803, -32.7822997], [-61.7954508, -32.782056], [-61.7957941, -32.7818498], [-61.796149, -32.7817398], [-61.7967084, -32.7815888], [-61.7971087, -32.7813509], [-61.7972886, -32.7810648], [-61.7974686, -32.7806801], [-61.7975378, -32.7805232], [-61.7975933, -32.7803042], [-61.7976623, -32.779722], [-61.7977318, -32.779008], [-61.797725, -32.7786712], [-61.7974774, -32.777534], [-61.7975097, -32.7772045], [-61.797414, -32.7768545], [-61.7972582, -32.7764949], [-61.7968865, -32.7761508], [-61.7962168, -32.775549], [-61.7957329, -32.7751275], [-61.795642, -32.7747639], [-61.7956596, -32.7743993], [-61.7957704, -32.7740747], [-61.7959463, -32.7737741], [-61.7961705, -32.7735409], [-61.7965171, -32.7732767], [-61.7967743, -32.7730958], [-61.7970825, -32.7727174], [-61.7974861, -32.7723601], [-61.7983397, -32.7715702], [-61.7995193, -32.7703529], [-61.8010977, -32.7686488], [-61.8014564, -32.768325], [-61.8018285, -32.7681089], [-61.8026146, -32.7676433], [-61.8032167, -32.7671945], [-61.8036527, -32.7667904], [-61.8040203, -32.7662095], [-61.8042245, -32.7659933], [-61.804723, -32.7656254], [-61.8051106, -32.7652519], [-61.805391, -32.7649055], [-61.8057538, -32.764332], [-61.8061479, -32.7638134], [-61.8063142, -32.7636583], [-61.8072238, -32.7629387], [-61.8075102, -32.7626914], [-61.8079464, -32.7622717], [-61.8093869, -32.7606465], [-61.8095942, -32.7602739], [-61.8097669, -32.7598213], [-61.8099493, -32.7594913], [-61.8101457, -32.7593188], [-61.8103944, -32.7591839], [-61.8108145, -32.7590594], [-61.8113479, -32.7589537], [-61.8117911, -32.7589339], [-61.8121592, -32.7589818], [-61.8125093, -32.7590493], [-61.8128785, -32.7590535], [-61.8135964, -32.7589801], [-61.8149644, -32.7588563], [-61.8156229, -32.7587871], [-61.8165503, -32.7586006], [-61.8168013, -32.7585541], [-61.8170981, -32.7585542], [-61.8177552, -32.7585471], [-61.8181025, -32.7585177], [-61.8184459, -32.7584507], [-61.8189415, -32.7582764], [-61.8192284, -32.758214], [-61.8195497, -32.7582038], [-61.819891, -32.758269], [-61.8202531, -32.7583184], [-61.8213152, -32.7582631], [-61.8221434, -32.7581773], [-61.8225572, -32.7581057], [-61.8230301, -32.7579862], [-61.8234515, -32.7578362], [-61.8242702, -32.7574803], [-61.8252217, -32.757055], [-61.8255516, -32.7568767], [-61.8264884, -32.7561483], [-61.8272246, -32.7555865], [-61.8275628, -32.7553012], [-61.8280002, -32.7548203], [-61.8282139, -32.7545354], [-61.8285148, -32.7540209], [-61.8292125, -32.7524609], [-61.8297246, -32.7511509], [-61.8299665, -32.7503886], [-61.8300104, -32.7501084], [-61.830103, -32.7493911], [-61.8302832, -32.7486047], [-61.8303201, -32.7483235], [-61.830342, -32.7480485], [-61.8303286, -32.7478531], [-61.8303006, -32.7477292], [-61.8302388, -32.7475704], [-61.8300924, -32.7473379], [-61.8300093, -32.74714], [-61.8297913, -32.7465592], [-61.8297722, -32.7464498], [-61.8297661, -32.7463904], [-61.8297711, -32.746314], [-61.8297872, -32.7462427], [-61.8298576, -32.7459906], [-61.8299423, -32.7458169], [-61.8300823, -32.7456065], [-61.831068, -32.7442588], [-61.8312345, -32.7440105], [-61.8313753, -32.7437804], [-61.831467, -32.743571], [-61.8315905, -32.7432297], [-61.8317176, -32.7428463], [-61.8319696, -32.7420966], [-61.832061, -32.7418381], [-61.832144, -32.7416586], [-61.8322483, -32.7414829], [-61.8324093, -32.7412794], [-61.8325636, -32.7411315], [-61.8327886, -32.7409478], [-61.833371, -32.7405166], [-61.8339564, -32.7400655], [-61.8341706, -32.7398859], [-61.834348, -32.7397102], [-61.8345186, -32.7394975], [-61.8347961, -32.739085], [-61.8350414, -32.7386715], [-61.8352353, -32.7382876], [-61.8357398, -32.7373564], [-61.836331, -32.7362833], [-61.8366272, -32.7357907], [-61.8370191, -32.7352233], [-61.8391304, -32.7327929], [-61.839363, -32.7325117], [-61.8396124, -32.7320908], [-61.839921, -32.7315348], [-61.8401054, -32.7311676], [-61.8403311, -32.7306297], [-61.8412631, -32.7281667], [-61.8414246, -32.7276413], [-61.8415546, -32.7268601], [-61.8420201, -32.7246291], [-61.84223, -32.7239256], [-61.8424855, -32.7232341], [-61.8427672, -32.7225034], [-61.843193, -32.7212015], [-61.8435063, -32.7204378], [-61.8439158, -32.7196758], [-61.8443142, -32.7190475], [-61.8449909, -32.7181748], [-61.8458245, -32.7170693], [-61.8466576, -32.7160167], [-61.8470999, -32.7154023], [-61.8474703, -32.7148688], [-61.8478566, -32.7142656], [-61.8483332, -32.7134345], [-61.8494143, -32.7116512], [-61.849645, -32.7112357], [-61.8498273, -32.7108326], [-61.8502944, -32.7096825], [-61.8504609, -32.7093041], [-61.8506766, -32.7088808], [-61.8508517, -32.7085663], [-61.8524129, -32.7061931], [-61.852667, -32.7057567], [-61.8529497, -32.7052189], [-61.8531786, -32.7046898], [-61.8532911, -32.7043293], [-61.8534183, -32.7038288], [-61.853587, -32.7029832], [-61.8537372, -32.7024726], [-61.8539365, -32.7019909], [-61.8542063, -32.7015156], [-61.8559355, -32.699032], [-61.8563025, -32.698491], [-61.8564401, -32.6982622], [-61.8565998, -32.697941], [-61.856818, -32.6974366], [-61.8569887, -32.6969505], [-61.8572162, -32.696156], [-61.8576698, -32.6944773], [-61.8578895, -32.6944943], [-61.858044, -32.6945267], [-61.8581285, -32.6945559], [-61.8581975, -32.6945797], [-61.8585232, -32.6946101], [-61.8590087, -32.6946322], [-61.8592783, -32.6946644], [-61.8599551, -32.6947863], [-61.8608275, -32.6948487], [-61.86116, -32.6948901], [-61.8614774, -32.6949652], [-61.8617385, -32.6950517], [-61.8618922, -32.695079], [-61.8624071, -32.6950995], [-61.8630023, -32.6951705], [-61.863138, -32.6951639], [-61.8632986, -32.6951289], [-61.8640133, -32.694847], [-61.8642506, -32.6947957], [-61.8645042, -32.6947887], [-61.8648212, -32.694814], [-61.8653339, -32.694922], [-61.8655784, -32.6949399], [-61.8658753, -32.6950598], [-61.8660963, -32.6951136], [-61.8663616, -32.6951559], [-61.8664934, -32.6952033], [-61.8666785, -32.6952022], [-61.8671294, -32.6951525], [-61.8676704, -32.6951276], [-61.8681267, -32.6951233], [-61.8688347, -32.6951274], [-61.869379, -32.6950614], [-61.8697959, -32.695021], [-61.8700849, -32.694944], [-61.8705839, -32.6947574], [-61.8708939, -32.6946006], [-61.8711869, -32.6945182], [-61.8715108, -32.6944722], [-61.8717631, -32.6944905], [-61.8720769, -32.6945415], [-61.8727541, -32.6945511], [-61.8732439, -32.6945857], [-61.8736929, -32.6945758], [-61.8743066, -32.6945184], [-61.8746813, -32.6945374], [-61.8749119, -32.6945024], [-61.8751475, -32.6944464], [-61.8755349, -32.6943018], [-61.875728, -32.6942491], [-61.8759616, -32.6942442], [-61.876086, -32.6942823], [-61.8762072, -32.6943791], [-61.8763754, -32.6944234], [-61.8765309, -32.6944004], [-61.8771023, -32.6941727], [-61.8773336, -32.6941314], [-61.8778014, -32.694115], [-61.8782111, -32.6940666], [-61.8787489, -32.6939327], [-61.8791041, -32.6938609], [-61.8793607, -32.693789], [-61.880222, -32.6933588], [-61.8804603, -32.6932562], [-61.8806754, -32.6931766], [-61.8811561, -32.6930731], [-61.8814785, -32.6930415], [-61.8821142, -32.6930675], [-61.8822755, -32.6930489], [-61.8826282, -32.6929235], [-61.8828865, -32.6928937], [-61.8830167, -32.6928375], [-61.8840781, -32.6922651], [-61.8842721, -32.6921978], [-61.884735, -32.6921505], [-61.8850431, -32.692012], [-61.8853217, -32.6919243], [-61.8855203, -32.6919134], [-61.8857045, -32.6919233], [-61.8861508, -32.6920328], [-61.8873968, -32.6922196], [-61.8878096, -32.6922367], [-61.888195, -32.6921864], [-61.8886523, -32.6920496], [-61.8888029, -32.6920189], [-61.8889416, -32.6920189], [-61.889072, -32.6920541], [-61.8892702, -32.6921978], [-61.8893689, -32.6922326], [-61.8895285, -32.692223], [-61.890092, -32.6920986], [-61.8903315, -32.6920685], [-61.8905059, -32.6920734], [-61.8909755, -32.6921635], [-61.8911338, -32.6921754], [-61.891253, -32.6921575], [-61.891668, -32.6920026], [-61.8918541, -32.6919679], [-61.8920398, -32.6919678], [-61.892242, -32.6919954], [-61.8933673, -32.6922013], [-61.8936072, -32.6922305], [-61.8941258, -32.6922523], [-61.8944942, -32.6923008], [-61.8946543, -32.6923302], [-61.8948539, -32.6923895], [-61.8949365, -32.6924404], [-61.8950263, -32.692528], [-61.8952197, -32.6928644], [-61.8952833, -32.6929417], [-61.8953846, -32.6930062], [-61.8954992, -32.6930478], [-61.8962213, -32.6931929], [-61.8963584, -32.6932079], [-61.8964832, -32.6932025], [-61.8965991, -32.6931674], [-61.8968843, -32.6929897], [-61.8970171, -32.6929397], [-61.8972026, -32.6929294], [-61.8974408, -32.6929396], [-61.8976653, -32.6929725], [-61.8981259, -32.6931868], [-61.9000906, -32.6937192], [-61.9004659, -32.693769], [-61.9007351, -32.693775], [-61.9020276, -32.693517], [-61.9022195, -32.6935197], [-61.9023448, -32.6935856], [-61.9024404, -32.6936902], [-61.9029521, -32.6950657], [-61.9030978, -32.6953948], [-61.9033842, -32.6957035], [-61.9037851, -32.6958793], [-61.9042305, -32.6959669], [-61.9050045, -32.695983], [-61.9052284, -32.695955], [-61.9055014, -32.695899], [-61.9058091, -32.6957871], [-61.9063308, -32.6955524], [-61.9065201, -32.6954913], [-61.906656, -32.6954799], [-61.9068158, -32.695506], [-61.9070983, -32.6956773], [-61.9072136, -32.6957041], [-61.9073204, -32.6957161], [-61.9075213, -32.6957078], [-61.9076162, -32.6956944], [-61.9080189, -32.6955711], [-61.9086733, -32.6953157], [-61.9087705, -32.6952563], [-61.9092826, -32.6949217], [-61.9094886, -32.6948093], [-61.9098195, -32.6946534], [-61.9101093, -32.6945563], [-61.9113785, -32.6939997], [-61.9115108, -32.6939147], [-61.9115969, -32.6938297], [-61.9116548, -32.6937198], [-61.9116889, -32.6936079], [-61.9117225, -32.693438], [-61.9117635, -32.6933921], [-61.9118284, -32.6933376], [-61.911924, -32.6932954], [-61.9120538, -32.6932618], [-61.9123438, -32.6932092], [-61.9129956, -32.6930379], [-61.9130869, -32.6930074], [-61.913408, -32.6928491], [-61.9135148, -32.6928193], [-61.9136799, -32.6928013], [-61.9138334, -32.6928014], [-61.9143258, -32.6928574], [-61.9150645, -32.6928018], [-61.9152796, -32.6927888], [-61.9154023, -32.6927643], [-61.915501, -32.6927197], [-61.9155524, -32.6926828], [-61.9155904, -32.6926433], [-61.915612, -32.6925937], [-61.9156317, -32.6924505], [-61.9156569, -32.6924052], [-61.9157194, -32.6923578], [-61.9158069, -32.6923179], [-61.9159465, -32.6922851], [-61.9162594, -32.6922517], [-61.9188225, -32.6918107], [-61.9189804, -32.691794], [-61.9191275, -32.6918145], [-61.9192085, -32.6918407], [-61.9194708, -32.6919842], [-61.9195555, -32.6920034], [-61.9196873, -32.6920049], [-61.9203427, -32.691862], [-61.920505, -32.691848], [-61.9209922, -32.6919268], [-61.9218206, -32.6921602], [-61.9219865, -32.6922239], [-61.9221013, -32.6922254], [-61.9221907, -32.6921895], [-61.9222769, -32.6921272], [-61.9223306, -32.6920572], [-61.9224598, -32.6917709], [-61.9225199, -32.6917193], [-61.9225783, -32.6916945], [-61.9226843, -32.6916897], [-61.9235944, -32.6918431], [-61.9238553, -32.6918159], [-61.924004, -32.6917689], [-61.9247947, -32.691098], [-61.9249444, -32.6909211], [-61.9253463, -32.6904519], [-61.9256808, -32.6903806], [-61.925852, -32.6904083], [-61.9260909, -32.690518], [-61.9263058, -32.6906374], [-61.9266075, -32.6907626], [-61.9267314, -32.6907579], [-61.9268502, -32.6907226], [-61.9276564, -32.6903208], [-61.9279857, -32.6901731], [-61.9282791, -32.6900918], [-61.9285952, -32.6900526], [-61.9287943, -32.6900497], [-61.9295, -32.6900851], [-61.9297079, -32.6900634], [-61.9298841, -32.6900216], [-61.9301484, -32.6898685], [-61.9303094, -32.6898134], [-61.9303792, -32.6898106], [-61.9304417, -32.6898081], [-61.9305828, -32.6897096], [-61.930661, -32.6896261], [-61.9307566, -32.689504], [-61.9310212, -32.6890413], [-61.9311183, -32.6888221], [-61.9311674, -32.6887587], [-61.9312348, -32.6887226], [-61.9313432, -32.6887103], [-61.9315434, -32.6887524], [-61.9316234, -32.6887468], [-61.9316977, -32.6887084], [-61.9317873, -32.6886194], [-61.9318479, -32.6885045], [-61.9321064, -32.6876449], [-61.9322874, -32.6870141], [-61.9324592, -32.6867042], [-61.9327638, -32.6863236], [-61.9328706, -32.686177], [-61.9329051, -32.6860762], [-61.9328709, -32.6859339], [-61.9327828, -32.6858106], [-61.9326811, -32.6857133], [-61.9325172, -32.6856242], [-61.9324433, -32.685518], [-61.9324553, -32.6854047], [-61.9325052, -32.6852603], [-61.9326825, -32.6850097], [-61.9329043, -32.6847781], [-61.9338905, -32.6840138], [-61.9347778, -32.683002], [-61.9348665, -32.6827832], [-61.9349019, -32.6824699], [-61.9349137, -32.6821417], [-61.9348665, -32.6818433], [-61.9347896, -32.6814603], [-61.9347069, -32.681162], [-61.9346833, -32.6809382], [-61.9347128, -32.6807293], [-61.9347424, -32.6804508], [-61.9347542, -32.680222], [-61.9348192, -32.6800828], [-61.9349255, -32.6799435], [-61.9351501, -32.6798241], [-61.93541, -32.6796948], [-61.9356759, -32.6795705], [-61.9359714, -32.6795357], [-61.9361959, -32.6796252], [-61.9363554, -32.6797297], [-61.9365918, -32.6799485], [-61.9368754, -32.680227], [-61.9371472, -32.6803911], [-61.9375903, -32.6806597], [-61.9379153, -32.6808287], [-61.9381753, -32.6807989], [-61.9383112, -32.6807094], [-61.9384294, -32.6805552], [-61.9384884, -32.6804359], [-61.9384884, -32.6802767], [-61.9384825, -32.6800728], [-61.9384235, -32.6798341], [-61.9383466, -32.6796053], [-61.9383407, -32.6794561], [-61.9384589, -32.6793268], [-61.938648, -32.6792472], [-61.9391148, -32.6791229], [-61.9394161, -32.6789936], [-61.9394752, -32.6788543], [-61.9395579, -32.6786156], [-61.9396584, -32.6784515], [-61.9398002, -32.6783371], [-61.9401429, -32.6782277], [-61.9405328, -32.6781481], [-61.9410528, -32.6780536], [-61.9412301, -32.6780288], [-61.9413837, -32.6780835], [-61.9415314, -32.6781979], [-61.9417559, -32.6783868], [-61.9419686, -32.6785062], [-61.9423291, -32.6786753], [-61.9427427, -32.6788792], [-61.9431504, -32.6790035], [-61.9434872, -32.679108], [-61.9440189, -32.6793069], [-61.9443616, -32.6794163], [-61.9449289, -32.6796202], [-61.9451416, -32.6796202], [-61.9453307, -32.6795357], [-61.9454547, -32.6794412], [-61.9456261, -32.6793019], [-61.9457738, -32.679098], [-61.9458979, -32.678914], [-61.9459924, -32.6788693], [-61.9461992, -32.6788345], [-61.9463115, -32.6787499], [-61.9464968, -32.6786197], [-61.9466178, -32.6784541], [-61.9465989, -32.6782218], [-61.9465211, -32.6779267], [-61.946493, -32.6776679], [-61.9464174, -32.6775215], [-61.9463153, -32.6774292], [-61.9462475, -32.6773532], [-61.9462661, -32.6772478], [-61.9463228, -32.6770504], [-61.9464325, -32.6767894], [-61.9465006, -32.6764457], [-61.9465497, -32.6762833], [-61.9465157, -32.6761178], [-61.946406, -32.6759905], [-61.9462132, -32.6759587], [-61.9460316, -32.6759746], [-61.9458988, -32.6759264], [-61.9457218, -32.6758135], [-61.9456199, -32.6755922], [-61.9456359, -32.6753935], [-61.945593, -32.6751316], [-61.9456648, -32.6749433], [-61.9457064, -32.6747427], [-61.9457442, -32.6742493], [-61.9456875, -32.6739756], [-61.9455716, -32.6737002], [-61.9454589, -32.6735015], [-61.945298, -32.6732817], [-61.9450863, -32.6730811], [-61.945022, -32.6728965], [-61.9450711, -32.6726419], [-61.9451531, -32.6724178], [-61.9454379, -32.6719638], [-61.9454795, -32.6717569], [-61.945416, -32.6715011], [-61.9453888, -32.6709611], [-61.9452753, -32.6704741], [-61.9451695, -32.6700571], [-61.9449085, -32.6694745], [-61.9447043, -32.6690034], [-61.9444611, -32.6685478], [-61.9444056, -32.668284], [-61.9444094, -32.6679911], [-61.9444737, -32.667399], [-61.9444826, -32.667166], [-61.9445682, -32.6669724], [-61.94464, -32.666565], [-61.9445758, -32.6662148], [-61.9444056, -32.6653967], [-61.94433, -32.6651324], [-61.9442619, -32.6649669], [-61.9442165, -32.66483], [-61.9442354, -32.664709], [-61.9443451, -32.6645562], [-61.9444094, -32.6644257], [-61.9443807, -32.6640409], [-61.9444018, -32.6637062], [-61.9444094, -32.6635407], [-61.9445039, -32.6632605], [-61.9446274, -32.6629481], [-61.9448329, -32.6626302], [-61.9448821, -32.662471], [-61.9448329, -32.6622991], [-61.9446972, -32.6621532], [-61.9445362, -32.6620448], [-61.9444396, -32.6619235], [-61.9443807, -32.661819], [-61.9443324, -32.6616068], [-61.944364, -32.6613122], [-61.9443489, -32.6610352], [-61.9442695, -32.6607583], [-61.9441863, -32.6605259], [-61.9440653, -32.6603444], [-61.9438925, -32.6600306], [-61.9437584, -32.6598409], [-61.9436379, -32.6595899], [-61.9435661, -32.6593479], [-61.9435547, -32.6589054], [-61.9435653, -32.6585222], [-61.9436833, -32.6579757], [-61.9437584, -32.6574834], [-61.9438933, -32.6567789], [-61.9438291, -32.656339], [-61.9437155, -32.6561195], [-61.9436641, -32.655899], [-61.9436618, -32.6557401], [-61.9438016, -32.6556057], [-61.9440583, -32.6554745], [-61.9442841, -32.6549136], [-61.9444159, -32.6545096], [-61.9443646, -32.6536309], [-61.9444665, -32.6534412], [-61.9446084, -32.6532823], [-61.9447551, -32.6528809], [-61.9449815, -32.6527185], [-61.9452135, -32.6526339], [-61.9453463, -32.6525921], [-61.9457126, -32.6525878], [-61.9458398, -32.6525288], [-61.9459793, -32.6523843], [-61.946049, -32.6522624], [-61.9460597, -32.6520094], [-61.9461119, -32.651754], [-61.9462046, -32.6515442], [-61.9462948, -32.6514202], [-61.9463294, -32.6512618], [-61.9462861, -32.6511601], [-61.9461955, -32.6510631], [-61.9460053, -32.6509739], [-61.9457597, -32.6508689], [-61.9455478, -32.6507442], [-61.9454276, -32.6506815], [-61.9452761, -32.6505936], [-61.945076, -32.6505421], [-61.944783, -32.6505099], [-61.9442969, -32.6505346], [-61.9441102, -32.650479], [-61.9439544, -32.6503931], [-61.9438385, -32.6502813], [-61.9437615, -32.6501583], [-61.9437037, -32.6496239], [-61.9436316, -32.6494766], [-61.9434164, -32.6491243], [-61.9434074, -32.6489912], [-61.9434409, -32.6486486], [-61.9434074, -32.6485699], [-61.9433005, -32.6484711], [-61.9431498, -32.648366], [-61.9427807, -32.6482135], [-61.9425828, -32.6481472], [-61.9421817, -32.6478429], [-61.941852, -32.6475783], [-61.9416782, -32.6473623], [-61.9412772, -32.647066], [-61.9408008, -32.6468988], [-61.9407491, -32.646839], [-61.9406327, -32.6467469], [-61.9394377, -32.6464122], [-61.9389655, -32.646243], [-61.9388073, -32.6461421], [-61.9387154, -32.6460606], [-61.938615, -32.6458918], [-61.9384789, -32.6455772], [-61.9383334, -32.6453671], [-61.9382286, -32.6452376], [-61.9379687, -32.6450183], [-61.9374666, -32.6445132], [-61.9373785, -32.6443518], [-61.9373594, -32.6440683], [-61.9373028, -32.6439727], [-61.9370999, -32.6438339], [-61.9368356, -32.6437163], [-61.9363702, -32.6435949], [-61.9357431, -32.6435405], [-61.935, -32.6436978], [-61.9345884, -32.643705], [-61.9342691, -32.6436849], [-61.9340562, -32.6436949], [-61.9339003, -32.6436409], [-61.9337765, -32.6435772], [-61.9334281, -32.643187], [-61.933052, -32.6428831], [-61.932956, -32.642784], [-61.9328399, -32.6424242], [-61.9327871, -32.6423397], [-61.9326276, -32.6422268], [-61.9322501, -32.6420429], [-61.932051, -32.6418248], [-61.9317983, -32.6415369], [-61.9315698, -32.6413719], [-61.931463, -32.6412761], [-61.9313747, -32.6411491], [-61.9312475, -32.6408391], [-61.9310701, -32.6406754], [-61.9309312, -32.6406077], [-61.9306356, -32.6404925], [-61.9302146, -32.6401776], [-61.930096, -32.6401521], [-61.9298517, -32.6401789], [-61.9296707, -32.6401697], [-61.9291, -32.6399871], [-61.9289533, -32.6399709], [-61.9288121, -32.6399817], [-61.9286384, -32.6399228], [-61.9285766, -32.6398374], [-61.9285476, -32.6396337], [-61.9284935, -32.6395413], [-61.9281796, -32.6392328], [-61.9279687, -32.6390398], [-61.9278676, -32.6390131], [-61.9277366, -32.6389882], [-61.9272142, -32.6390133], [-61.9270977, -32.6389935], [-61.9268073, -32.6389397], [-61.9264994, -32.638964], [-61.92632, -32.6389309], [-61.9261275, -32.6388486], [-61.9258142, -32.6386615], [-61.9254475, -32.6385148], [-61.9252136, -32.6384449], [-61.9250741, -32.6383365], [-61.9252243, -32.6379977], [-61.9252549, -32.6378333], [-61.9251845, -32.6376708], [-61.9251212, -32.6375574], [-61.9249891, -32.637434], [-61.9247171, -32.6371769], [-61.924473, -32.6369455], [-61.924281, -32.6368462], [-61.9237505, -32.6366129], [-61.9234675, -32.6363702], [-61.923363, -32.6362426], [-61.9232042, -32.6361624], [-61.9229694, -32.6359564], [-61.9228328, -32.6358224], [-61.9223863, -32.6351476], [-61.9221002, -32.6348749], [-61.9214552, -32.634538], [-61.9209839, -32.6343398], [-61.9208148, -32.6343024], [-61.9206201, -32.6342001], [-61.9203822, -32.6339381], [-61.920011, -32.6334425], [-61.9197967, -32.6328607], [-61.9196673, -32.6327124], [-61.9195617, -32.6326087], [-61.9193342, -32.6325767], [-61.9189962, -32.6326174], [-61.9188031, -32.6325722], [-61.9185808, -32.6326087], [-61.9181701, -32.6325496], [-61.918001, -32.6325086], [-61.9178563, -32.6324335], [-61.9177678, -32.6323282], [-61.9176981, -32.6322424], [-61.9176167, -32.6320268], [-61.9175448, -32.6318444], [-61.9175175, -32.6312282], [-61.9174493, -32.6310357], [-61.9173333, -32.6308826], [-61.9172177, -32.6306814], [-61.9171179, -32.6301325], [-61.9169584, -32.6297964], [-61.9167486, -32.6295228], [-61.9164263, -32.6293196], [-61.9161404, -32.6291863], [-61.9158, -32.6290715], [-61.9155891, -32.629037], [-61.9143185, -32.6289625], [-61.9132239, -32.6290937], [-61.9129442, -32.6290848], [-61.9128003, -32.6290439], [-61.9125116, -32.6289645], [-61.9123926, -32.6288405], [-61.9123766, -32.6286282], [-61.9124355, -32.6284476], [-61.9125267, -32.6283128], [-61.9129398, -32.6278376], [-61.9132591, -32.6272922], [-61.9132509, -32.6271057], [-61.9130364, -32.6268527], [-61.9127521, -32.6267217], [-61.9124291, -32.6266095], [-61.9119903, -32.6262292], [-61.9115451, -32.6259446], [-61.9113519, -32.625678], [-61.911054, -32.6253896], [-61.9106492, -32.6252262], [-61.910238, -32.6251271], [-61.9095173, -32.6252624], [-61.9087803, -32.6254513], [-61.9085195, -32.6255289], [-61.9082302, -32.6255208], [-61.9078812, -32.6255018], [-61.907451, -32.6254359], [-61.907039, -32.6250184], [-61.9067359, -32.6245711], [-61.9067761, -32.624291], [-61.90669, -32.6240461], [-61.9062236, -32.6237172], [-61.9058159, -32.6233874], [-61.905773, -32.6231479], [-61.9058105, -32.6227052], [-61.9058283, -32.6222856], [-61.9057139, -32.6220952], [-61.9054833, -32.6219552], [-61.9050123, -32.6216833], [-61.9041261, -32.621291], [-61.9032521, -32.6210269], [-61.9026745, -32.6208184], [-61.902447, -32.6206946], [-61.9023445, -32.6204787], [-61.9023078, -32.6198069], [-61.9018522, -32.6193646], [-61.9017669, -32.6192818], [-61.9015404, -32.6192171], [-61.9011251, -32.6192586], [-61.9002359, -32.6194208], [-61.8999204, -32.6192713], [-61.89975, -32.6190733], [-61.8995771, -32.6186252], [-61.8994291, -32.6183706], [-61.8991854, -32.618074], [-61.898879, -32.6178301], [-61.898134, -32.6177035], [-61.8973755, -32.617637], [-61.8968162, -32.6171892], [-61.8963395, -32.6162934], [-61.896353, -32.61586], [-61.8964587, -32.6155057], [-61.8963101, -32.615268], [-61.8961277, -32.6150873], [-61.8957254, -32.6149291], [-61.8955806, -32.6147484], [-61.8949827, -32.6142625], [-61.8944862, -32.6140661], [-61.8939834, -32.6139613], [-61.8932591, -32.6139304], [-61.892709, -32.6137837], [-61.8924157, -32.6138764], [-61.891981, -32.6141836], [-61.8915997, -32.6145482], [-61.8911281, -32.6146083], [-61.8907471, -32.6146254], [-61.8906238, -32.6145903], [-61.8905454, -32.6145482], [-61.8902912, -32.6142152], [-61.8901053, -32.6137528], [-61.8900713, -32.6136142], [-61.8902429, -32.6129574], [-61.8904414, -32.6123716], [-61.8904629, -32.6121079], [-61.8904522, -32.6118791], [-61.8902979, -32.6116523], [-61.8900606, -32.6113911], [-61.8897548, -32.6111471], [-61.8895027, -32.6108895], [-61.8894728, -32.6107102], [-61.8897111, -32.609992], [-61.8899747, -32.6096468], [-61.8900713, -32.6095745], [-61.8902887, -32.6093278], [-61.8902698, -32.6091453], [-61.8900962, -32.6089108], [-61.889977, -32.6081385], [-61.890082, -32.6075998], [-61.8901089, -32.6072835], [-61.8900606, -32.6070847], [-61.8899801, -32.6068], [-61.8898886, -32.60653], [-61.8898848, -32.6063779], [-61.8899495, -32.6061383], [-61.890302, -32.6058239], [-61.8905165, -32.6055482], [-61.890641, -32.605336], [-61.8906646, -32.6050262], [-61.8903626, -32.603804], [-61.890363, -32.6035796], [-61.8904776, -32.6032463], [-61.8907338, -32.6027268], [-61.8907914, -32.6024078], [-61.8909197, -32.6019595], [-61.8911165, -32.6015347], [-61.8911671, -32.6013369], [-61.8911609, -32.6011357], [-61.891038, -32.6004491], [-61.8909331, -32.6002667], [-61.8903, -32.5994142], [-61.8902365, -32.5991945], [-61.8902708, -32.5989391], [-61.8903862, -32.5987431], [-61.8907233, -32.5983287], [-61.8909493, -32.5979625], [-61.8911335, -32.5975476], [-61.8911747, -32.5972778], [-61.891146, -32.5970141], [-61.8910383, -32.5967235], [-61.8908562, -32.5963832], [-61.890676, -32.5962046], [-61.8906259, -32.5960062], [-61.8904691, -32.595725], [-61.8904905, -32.5955025], [-61.8905799, -32.5951742], [-61.890722, -32.5949456], [-61.8911257, -32.5944923], [-61.8915793, -32.5941051], [-61.891679, -32.5938983], [-61.8917047, -32.593726], [-61.8915729, -32.593283], [-61.8914286, -32.5931405], [-61.8910573, -32.5929512], [-61.8908499, -32.592795], [-61.8907525, -32.5926334], [-61.8906571, -32.5923751], [-61.8906918, -32.5921521], [-61.8908407, -32.5918372], [-61.8910403, -32.5916441], [-61.8914288, -32.5912152], [-61.8916833, -32.5906641], [-61.8920107, -32.5904307], [-61.8923263, -32.5903574], [-61.8932478, -32.5904298], [-61.8937463, -32.5903461], [-61.8941797, -32.59042], [-61.8948312, -32.5906207], [-61.8951526, -32.5907716], [-61.8955012, -32.5912717], [-61.8956689, -32.5916329], [-61.8958763, -32.5918021], [-61.8961649, -32.591866], [-61.897453, -32.5917647], [-61.8977919, -32.5917683], [-61.8988118, -32.5921481], [-61.8992987, -32.5922384], [-61.9001983, -32.5922811], [-61.9006855, -32.5923777], [-61.9020921, -32.5931001], [-61.9025723, -32.5932793], [-61.9031912, -32.5934054], [-61.9034987, -32.593529], [-61.9040747, -32.5941046], [-61.9044252, -32.5945731], [-61.9047713, -32.594714], [-61.9066601, -32.5951429], [-61.9067935, -32.5951889], [-61.9069135, -32.5952575], [-61.9069556, -32.5953524], [-61.9070901, -32.5954777], [-61.9074511, -32.5955671], [-61.907621, -32.5955671], [-61.9078758, -32.5954717], [-61.9082227, -32.5953942], [-61.9084067, -32.5952809], [-61.9085836, -32.5951437], [-61.9087394, -32.5951318], [-61.9088314, -32.5951735], [-61.9088701, -32.5952538], [-61.9091713, -32.5953415], [-61.9096871, -32.5953923], [-61.9106157, -32.5953164], [-61.912641, -32.5952113], [-61.9151666, -32.5947187], [-61.9158372, -32.5944997], [-61.9164259, -32.5943688], [-61.9171104, -32.594381], [-61.9173034, -32.5943315], [-61.917719, -32.5940841], [-61.9181207, -32.593961], [-61.9192257, -32.5938722], [-61.9197625, -32.5940273], [-61.9202432, -32.5942392], [-61.9204645, -32.5942851], [-61.9206596, -32.5942447], [-61.921339, -32.5938307], [-61.9220522, -32.5935336], [-61.9224031, -32.5932198], [-61.9225881, -32.5928677], [-61.9226952, -32.592247], [-61.9222398, -32.5919422], [-61.9214628, -32.5916601], [-61.9212289, -32.5914965], [-61.9210717, -32.5911935], [-61.9210945, -32.5909585], [-61.9215923, -32.5903775], [-61.9219049, -32.5899704], [-61.9223687, -32.5897076], [-61.9231553, -32.5893719], [-61.9236384, -32.5889169], [-61.924112, -32.5882545], [-61.9245762, -32.5869935], [-61.9250024, -32.5865346], [-61.9249882, -32.5862672], [-61.9244341, -32.585489], [-61.9243725, -32.5852176], [-61.9244956, -32.5849782], [-61.9248272, -32.5848465], [-61.9252724, -32.5847507], [-61.9257697, -32.584647], [-61.9259449, -32.5845472], [-61.9262622, -32.5842399], [-61.9264043, -32.5839246], [-61.9262433, -32.5834298], [-61.9259923, -32.5829589], [-61.925476, -32.5826077], [-61.9245729, -32.5821539], [-61.9238897, -32.5818604], [-61.9234141, -32.5815161], [-61.9224764, -32.5810138], [-61.9216525, -32.5807034], [-61.9215521, -32.5800938], [-61.9212373, -32.5797778], [-61.9206143, -32.5794561], [-61.9199445, -32.5791456], [-61.9190537, -32.5783611], [-61.918625, -32.5781128], [-61.9179619, -32.5778306], [-61.9173658, -32.5772041], [-61.9158453, -32.5759736], [-61.915631, -32.5756124], [-61.9154301, -32.5750366], [-61.9150014, -32.5744496], [-61.9144588, -32.5743029], [-61.9140034, -32.574269], [-61.9135881, -32.5739303], [-61.913146, -32.5737441], [-61.9124896, -32.573586], [-61.9118131, -32.573349], [-61.9110629, -32.5731345], [-61.9100649, -32.5729256], [-61.9093077, -32.5730541], [-61.9090334, -32.5730667], [-61.9088637, -32.5730237], [-61.9086583, -32.5728861], [-61.9082999, -32.5722474], [-61.9080714, -32.571954], [-61.9076741, -32.5716095], [-61.9070648, -32.5712358], [-61.9062132, -32.5709303], [-61.905604, -32.5706618], [-61.905085, -32.5702767], [-61.9048895, -32.570067], [-61.9047157, -32.5695688], [-61.9045493, -32.5693676], [-61.9025198, -32.5689762], [-61.9026806, -32.5679306], [-61.9029217, -32.5669258], [-61.9029485, -32.5651308], [-61.9033102, -32.5636743], [-61.9033158, -32.5633319], [-61.9033905, -32.5631324], [-61.9038887, -32.5622306], [-61.9042188, -32.5611875], [-61.9042114, -32.5609595], [-61.9039229, -32.5605381], [-61.9038316, -32.5603146], [-61.9038299, -32.5599497], [-61.9038478, -32.5595475], [-61.9039666, -32.5592033], [-61.9044086, -32.558763], [-61.9047569, -32.5576565], [-61.9053732, -32.5568323], [-61.9056606, -32.5562137], [-61.9057483, -32.5551951], [-61.9053464, -32.553411], [-61.9051206, -32.5529969], [-61.9050062, -32.5527389], [-61.9049483, -32.5525834], [-61.9052928, -32.5524738], [-61.9055635, -32.5524569], [-61.9059721, -32.5523101], [-61.9062869, -32.5522085], [-61.9064342, -32.5522762], [-61.9066821, -32.5522198], [-61.9071174, -32.552169], [-61.9076935, -32.5521351], [-61.9080284, -32.5523101], [-61.9082628, -32.552519], [-61.9085977, -32.552694], [-61.9089259, -32.5527279], [-61.9091871, -32.5526997], [-61.9095756, -32.5527561], [-61.9101382, -32.5528013], [-61.9107612, -32.5529255], [-61.9109286, -32.5528126], [-61.9111697, -32.5526432], [-61.9112836, -32.552694], [-61.9113841, -32.5528126], [-61.9115448, -32.5530892], [-61.9116587, -32.5531739], [-61.912362, -32.5534167], [-61.9126232, -32.5534167], [-61.9133868, -32.5532134], [-61.9137083, -32.5531513], [-61.9140499, -32.5531005], [-61.9142709, -32.5530158], [-61.915845, -32.5528408], [-61.9165081, -32.5528747], [-61.9176066, -32.5528295], [-61.9178678, -32.5527843], [-61.9186981, -32.5529147], [-61.9194938, -32.5529227], [-61.9196603, -32.5528501], [-61.9197685, -32.5528029], [-61.9200526, -32.5526033], [-61.9203368, -32.5523718], [-61.9210378, -32.5519326], [-61.9214735, -32.551757], [-61.9218619, -32.5517649], [-61.9220797, -32.5518208], [-61.9223166, -32.5519127], [-61.9225534, -32.5519446], [-61.9230791, -32.5518887], [-61.9233064, -32.5517769], [-61.9235717, -32.5515933], [-61.9241874, -32.5514136], [-61.9245284, -32.5511621], [-61.9247415, -32.5507749], [-61.9249025, -32.5503836], [-61.9250588, -32.5501481], [-61.9252483, -32.5499285], [-61.9252862, -32.5497209], [-61.9251772, -32.5495492], [-61.9252151, -32.5494175], [-61.9253904, -32.5492139], [-61.9257503, -32.549142], [-61.9262192, -32.5492778], [-61.9268775, -32.5493696], [-61.9272943, -32.5492897], [-61.9275169, -32.549146], [-61.927768, -32.5489065], [-61.9282984, -32.548639], [-61.9286394, -32.5483236], [-61.9289662, -32.5473934], [-61.9292362, -32.5468584], [-61.9297477, -32.5464751], [-61.9298519, -32.5462675], [-61.9297714, -32.5459641], [-61.9296246, -32.5455768], [-61.9296198, -32.5454211], [-61.9298519, -32.5451776], [-61.930245, -32.5447943], [-61.9305529, -32.5445268], [-61.9305955, -32.5443072], [-61.9305576, -32.543884], [-61.9306571, -32.5435047], [-61.9306097, -32.5433171], [-61.9304992, -32.5431563], [-61.9304297, -32.5430256], [-61.9302742, -32.5424586], [-61.9302133, -32.5423477], [-61.9300374, -32.5421083], [-61.9300167, -32.5420466], [-61.9300475, -32.5419457], [-61.9304202, -32.5414685], [-61.9305292, -32.5413168], [-61.9305595, -32.5407885], [-61.9308167, -32.5399], [-61.9308056, -32.5397022], [-61.9307011, -32.5394635], [-61.9306276, -32.5392685], [-61.9306497, -32.5391208], [-61.9307559, -32.5388076], [-61.9309147, -32.5383848], [-61.9308626, -32.538277], [-61.9307726, -32.5381772], [-61.9305642, -32.5380335], [-61.9302943, -32.5378738], [-61.9301143, -32.5376981], [-61.9299296, -32.5373467], [-61.9299106, -32.5370792], [-61.929617, -32.536604], [-61.9293754, -32.5363006], [-61.9291339, -32.5361249], [-61.9289113, -32.5360331], [-61.9288071, -32.5359452], [-61.9283098, -32.5357096], [-61.9279877, -32.5356338], [-61.9275485, -32.5355558], [-61.9267581, -32.5352339], [-61.9261553, -32.535008], [-61.9257957, -32.534481], [-61.9257202, -32.5344205], [-61.925629, -32.5343685], [-61.9246658, -32.5340704], [-61.9244958, -32.5340492], [-61.9242932, -32.5340424], [-61.9235715, -32.5339144], [-61.9234339, -32.5338596], [-61.9233024, -32.5337659], [-61.9229099, -32.5333617], [-61.9228341, -32.5333271], [-61.9227418, -32.533311], [-61.9226148, -32.5333083], [-61.9225208, -32.5332875], [-61.92207, -32.5330751], [-61.9215163, -32.5329361], [-61.9213595, -32.5328679], [-61.9211538, -32.5327463], [-61.9210538, -32.5326514], [-61.9210243, -32.5325947], [-61.9209518, -32.5325418], [-61.9208356, -32.5325472], [-61.9207097, -32.5325328], [-61.9205691, -32.5325799], [-61.9204337, -32.5325807], [-61.9203185, -32.5325484], [-61.9202362, -32.5325052], [-61.9201448, -32.5324418], [-61.919792, -32.5320084], [-61.9197267, -32.5319792], [-61.918944, -32.5319575], [-61.9188455, -32.531939], [-61.9187604, -32.531889], [-61.9186946, -32.5318259], [-61.9182102, -32.5310483], [-61.9180685, -32.5309539], [-61.9179473, -32.5308978], [-61.9178104, -32.5308987], [-61.9176823, -32.5308406], [-61.9172067, -32.5304396], [-61.916624, -32.5300725], [-61.9160789, -32.5296008], [-61.9156215, -32.5292492], [-61.9151199, -32.5287171], [-61.914939, -32.5283803], [-61.9143719, -32.5279891], [-61.9141936, -32.5278781], [-61.9133569, -32.5276459], [-61.9130563, -32.5275178], [-61.9129038, -32.5273905], [-61.9127017, -32.5271089], [-61.912404, -32.5269303], [-61.9121191, -32.5267679], [-61.9120738, -32.5267076], [-61.9120394, -32.5266347], [-61.9120376, -32.5265301], [-61.9121357, -32.5263352], [-61.9122059, -32.5262588], [-61.9122964, -32.5262034], [-61.9124047, -32.5261634], [-61.9124777, -32.5261274], [-61.9126292, -32.5260219], [-61.9126849, -32.5259656], [-61.9128721, -32.5256687], [-61.9132237, -32.5250843], [-61.9132713, -32.5249685], [-61.9134155, -32.5244634], [-61.9134362, -32.5243455], [-61.9134532, -32.5242041], [-61.9134461, -32.5236686], [-61.9134611, -32.5235835], [-61.9135072, -32.5235276], [-61.9136005, -32.5234776], [-61.9136832, -32.5234516], [-61.913903, -32.5234213], [-61.9140132, -32.5233918], [-61.9144722, -32.5231576], [-61.9145394, -32.5231016], [-61.9146031, -32.5230282], [-61.9146748, -32.522933], [-61.915093, -32.5225605], [-61.9151634, -32.5224773], [-61.9152223, -32.5223895], [-61.9152827, -32.5222038], [-61.9152993, -32.5221008], [-61.9152901, -32.5219981], [-61.9152672, -32.5218752], [-61.9152164, -32.5217586], [-61.9151592, -32.5216725], [-61.9148326, -32.5213701], [-61.9147693, -32.5212814], [-61.9147329, -32.5211858], [-61.9147099, -32.5210727], [-61.9147098, -32.5209797], [-61.9147559, -32.5207104], [-61.9147578, -32.5206007], [-61.9147347, -32.5205029], [-61.9146216, -32.5202306], [-61.9145771, -32.5200285], [-61.9144904, -32.519807], [-61.9144836, -32.5197457], [-61.9145092, -32.5196658], [-61.9145622, -32.5196133], [-61.914622, -32.5195794], [-61.914909, -32.5195024], [-61.914972, -32.5194766], [-61.9150193, -32.519433], [-61.9150464, -32.5193747], [-61.9150519, -32.5193111], [-61.9150478, -32.5192051], [-61.915016, -32.5190956], [-61.9149546, -32.518984], [-61.9149353, -32.5189103], [-61.9149352, -32.5188591], [-61.9149453, -32.518808], [-61.9149715, -32.5187658], [-61.9151254, -32.5186078], [-61.9151999, -32.5185519], [-61.9155092, -32.5184044], [-61.9155822, -32.5183389], [-61.9156251, -32.5182703], [-61.9156793, -32.5180393], [-61.9157185, -32.5179681], [-61.9158637, -32.5177908], [-61.9159291, -32.5177114], [-61.9160965, -32.5173734], [-61.9161306, -32.5172741], [-61.9161461, -32.517166], [-61.9161308, -32.5168515], [-61.9160879, -32.5166601], [-61.9160834, -32.5164483], [-61.9160546, -32.5161564], [-61.916061, -32.5160587], [-61.9160885, -32.5160058], [-61.916134, -32.5159339], [-61.9161898, -32.5158886], [-61.9163172, -32.5158342], [-61.9164363, -32.5158081], [-61.9166887, -32.5157975], [-61.916774, -32.515765], [-61.9174155, -32.5151889], [-61.9175066, -32.5150586], [-61.9175635, -32.5149052], [-61.9176666, -32.514459], [-61.9177006, -32.5143735], [-61.9177536, -32.5142821], [-61.9181734, -32.513762], [-61.9182912, -32.5135939], [-61.9183676, -32.5134582], [-61.9183822, -32.5133872], [-61.9184035, -32.5132952], [-61.918407, -32.5132813], [-61.918567, -32.5124058], [-61.9185222, -32.5117402], [-61.9188451, -32.5112939], [-61.9188989, -32.510893], [-61.9186478, -32.5103332], [-61.91889, -32.510008], [-61.9190873, -32.5095844], [-61.9196379, -32.509232], [-61.9196793, -32.508722], [-61.9200919, -32.5076403], [-61.920083, -32.5071259], [-61.9204687, -32.5067476], [-61.920675, -32.506082], [-61.9205404, -32.5053406], [-61.920666, -32.5047877], [-61.9199574, -32.5045539], [-61.9194192, -32.5041605], [-61.9187285, -32.5041151], [-61.9182262, -32.5035553], [-61.9180216, -32.5034952], [-61.91767, -32.5033511], [-61.9176521, -32.5025038], [-61.9169345, -32.5014371], [-61.9164275, -32.5007754], [-61.9160644, -32.5008319], [-61.9154365, -32.5007335], [-61.914979, -32.5008319], [-61.9141828, -32.5006302], [-61.9129668, -32.5002104], [-61.9133187, -32.4980748], [-61.9141292, -32.4956343], [-61.9149187, -32.4938894], [-61.920787, -32.4844988], [-61.9214044, -32.4831072], [-61.9217979, -32.4820568], [-61.9282513, -32.4648305], [-61.9441669, -32.4388114], [-61.9477039, -32.4341927], [-61.9480159, -32.4338965], [-61.950162, -32.4323029], [-61.9550626, -32.4269508], [-61.9558586, -32.4255475], [-61.9569519, -32.4232077], [-61.9570908, -32.4229331], [-61.9573344, -32.4223237], [-61.9576296, -32.4218169], [-61.9579427, -32.4214284], [-61.9583541, -32.4210505], [-61.9589729, -32.4205688], [-61.9641143, -32.4169932], [-61.9646511, -32.4165632], [-61.9650409, -32.4161938], [-61.9655962, -32.4156295], [-61.9659899, -32.4151323], [-61.9663752, -32.4145794], [-61.9717534, -32.4058838], [-61.9721288, -32.4053327], [-61.9724598, -32.4048906], [-61.9729759, -32.4042876], [-61.9735424, -32.4037538], [-61.9765293, -32.4014374], [-61.9772129, -32.4008326], [-61.9778046, -32.4002814], [-61.9832004, -32.3946416], [-61.9836681, -32.3940973], [-61.9843675, -32.3930563], [-61.9849616, -32.3915991], [-61.9850888, -32.3911511], [-61.9860354, -32.3871463], [-61.9862949, -32.3863335], [-61.9865768, -32.3856742], [-61.9868057, -32.3852227], [-61.9871516, -32.3846512], [-61.9942517, -32.3754051], [-61.9947849, -32.3746236], [-61.9954216, -32.3736748], [-62.0052822, -32.3556174], [-62.0057106, -32.3548812], [-62.0086203, -32.3505318], [-62.0091603, -32.3498179], [-62.0106063, -32.3482932], [-62.0112642, -32.3477477], [-62.0113309, -32.3476684], [-62.0115258, -32.3474355], [-62.0116802, -32.3471648], [-62.0123157, -32.3455132], [-62.0262517, -32.3047502], [-62.0271852, -32.3009971], [-62.0348587, -32.2701418], [-62.0354752, -32.2677094], [-62.0360487, -32.2662137], [-62.0366271, -32.2649981], [-62.0369505, -32.2644466], [-62.03796, -32.2628772], [-62.0394916, -32.2609843], [-62.0408085, -32.2597445], [-62.0420109, -32.2588355], [-62.0430095, -32.2581263], [-62.0440199, -32.2575123], [-62.0669619, -32.2441092], [-62.0686069, -32.2435932], [-62.0686694, -32.2435736], [-62.0789199, -32.2376181], [-62.1206518, -32.2132381], [-62.1257456, -32.2102586], [-62.1273555, -32.2092653], [-62.1288286, -32.2081138], [-62.1441671, -32.1945788], [-62.1722643, -32.1660178], [-62.1780099, -32.1601498], [-62.1788133, -32.1591489], [-62.1794449, -32.1581752], [-62.1802869, -32.1568284], [-62.1808379, -32.1556266], [-62.1965612, -32.1151897], [-62.1967002, -32.114831], [-62.1966746, -32.1145487], [-62.1966075, -32.114258], [-62.1965223, -32.1137127], [-62.1962808, -32.1115571], [-62.1961915, -32.111075], [-62.1946814, -32.1062271], [-62.1864312, -32.0787342], [-62.1828414, -32.066779], [-62.1819317, -32.0637577], [-62.2173676, -32.0575546], [-62.223893, -32.0563962], [-62.244257, -32.0529383], [-62.2540708, -32.0512718], [-62.2612195, -32.0500579], [-62.2677693, -32.0489457], [-62.2713495, -32.0483377], [-62.2724352, -32.04809], [-62.2724598, -32.0480495], [-62.2724573, -32.0480013], [-62.2823623, -32.0462874], [-62.2824345, -32.0465353], [-62.2850917, -32.0569253], [-62.2915169, -32.0820442], [-62.2921723, -32.0846057], [-62.2930594, -32.0880733], [-62.2932295, -32.0887382], [-62.2945546, -32.0938937], [-62.2947341, -32.0945426], [-62.2953689, -32.0969836], [-62.2961309, -32.0999136], [-62.296291, -32.1006358], [-62.3001242, -32.1155329], [-62.3049449, -32.1342647], [-62.3069725, -32.1421423], [-62.3396765, -32.1365215], [-62.3410494, -32.1421026], [-62.3416908, -32.1446722], [-62.3420146, -32.1459696], [-62.3463477, -32.1633272], [-62.3469409, -32.1656451], [-62.3484807, -32.1718969], [-62.3537127, -32.1927724], [-62.3562601, -32.2029349], [-62.3596542, -32.2166063], [-62.3684248, -32.2519246], [-62.3724813, -32.2687245], [-62.3726675, -32.2695293], [-62.3762525, -32.2873232], [-62.3705162, -32.2883268], [-62.369213, -32.2885548], [-62.3626042, -32.289711], [-62.358209, -32.2904799], [-62.3391501, -32.2938141], [-62.3298559, -32.2954461], [-62.326168, -32.2960936], [-62.2949856, -32.3015176], [-62.2982623, -32.3155365], [-62.2992351, -32.3196557], [-62.2852698, -32.3220301], [-62.2632969, -32.3259187], [-62.24525, -32.3290646], [-62.2544502, -32.3682485], [-62.2545319, -32.3804308], [-62.2636719, -32.418727], [-62.2928766, -32.4137963], [-62.2933063, -32.4155839], [-62.3455109, -32.40648], [-62.3470309, -32.4127186], [-62.3475723, -32.4149406], [-62.3496358, -32.4234674], [-62.3501311, -32.4254955], [-62.3502828, -32.4261163], [-62.3507074, -32.427855], [-62.3525934, -32.4356669], [-62.3533208, -32.4386793], [-62.3547019, -32.4443994], [-62.3767876, -32.4405825], [-62.3906486, -32.4380786], [-62.3915914, -32.4419561], [-62.3928083, -32.4469721], [-62.3930128, -32.4476049], [-62.3932196, -32.4480312], [-62.3932467, -32.4481509], [-62.3931882, -32.4484772], [-62.393157, -32.44864], [-62.3931485, -32.4486927], [-62.3931685, -32.4487776], [-62.3933242, -32.4491006], [-62.3933776, -32.4492831], [-62.3997986, -32.4756151], [-62.3998987, -32.4760475], [-62.4000105, -32.4765306], [-62.4013112, -32.4815961], [-62.4023903, -32.486089], [-62.4040932, -32.4929278], [-62.4067592, -32.5036338], [-62.4091123, -32.513202], [-62.410933, -32.5206046], [-62.4129419, -32.5287713], [-62.4130013, -32.5289422], [-62.4131141, -32.5291581], [-62.4132521, -32.5293632], [-62.4135148, -32.5296017], [-62.4138849, -32.529822], [-62.4140809, -32.5299066], [-62.4150558, -32.5302023], [-62.4153028, -32.5302533], [-62.417471, -32.5392928], [-62.4195834, -32.5483486], [-62.4217661, -32.5573726], [-62.4239946, -32.5664048], [-62.4262082, -32.5753804], [-62.4305781, -32.5931808], [-62.4334482, -32.5926527], [-62.4361462, -32.6033867], [-62.4361778, -32.6035123], [-62.436255, -32.6038287], [-62.4363828, -32.6043518], [-62.4364689, -32.6046972], [-62.4387961, -32.6140342], [-62.4391924, -32.6156231], [-62.4391947, -32.6156324], [-62.4406265, -32.6213725], [-62.4420584, -32.6271128], [-62.4448766, -32.638431], [-62.4448887, -32.6385043], [-62.4449268, -32.6387356], [-62.4449783, -32.6389171], [-62.4504722, -32.660916], [-62.4507077, -32.6618589], [-62.4564171, -32.6847148], [-62.4739639, -32.6815852], [-62.4819961, -32.6801311], [-62.4821216, -32.6801302], [-62.4822944, -32.6801302], [-62.4866805, -32.6792603], [-62.4867207, -32.6797389], [-62.4867529, -32.6805901], [-62.4866563, -32.6812899], [-62.4865437, -32.6818882], [-62.4864873, -32.6827844], [-62.4864551, -32.6830756], [-62.4862996, -32.6834368], [-62.4860463, -32.6837353], [-62.4858651, -32.6839358], [-62.4857913, -32.6841954], [-62.4858624, -32.6844821], [-62.4860528, -32.684622], [-62.4864471, -32.6847022], [-62.486832, -32.6847327], [-62.4870868, -32.6847812], [-62.4872611, -32.6848433], [-62.4874905, -32.6849945], [-62.4875308, -32.6850368], [-62.4877909, -32.6855183], [-62.4880108, -32.6859156], [-62.4882066, -32.6862858], [-62.4884373, -32.6867237], [-62.4886277, -32.6871572], [-62.4890381, -32.6879292], [-62.489242, -32.6885207], [-62.4895906, -32.6895681], [-62.4899232, -32.6905478], [-62.4900734, -32.6912882], [-62.4901033, -32.6915634], [-62.4901003, -32.6919405], [-62.4900359, -32.6924462], [-62.4900681, -32.6929157], [-62.4902719, -32.6936606], [-62.4905241, -32.6941301], [-62.4908888, -32.6946177], [-62.4911051, -32.6950034], [-62.4911705, -32.6953513], [-62.4911436, -32.6957824], [-62.4910685, -32.6962135], [-62.4909318, -32.6967191], [-62.4906153, -32.6971345], [-62.4903899, -32.6972609], [-62.4901888, -32.6973489], [-62.4897838, -32.6975137], [-62.4894431, -32.6976784], [-62.4891052, -32.6978861], [-62.4887779, -32.6981028], [-62.4882925, -32.6982789], [-62.4876648, -32.6985046], [-62.4872276, -32.6986242], [-62.4866831, -32.6987145], [-62.486195, -32.6987438], [-62.4855191, -32.6987393], [-62.4848968, -32.6986355], [-62.4842343, -32.6984053], [-62.4835584, -32.6980577], [-62.483202, -32.6979309], [-62.4838954, -32.7006529], [-62.4864192, -32.7109855], [-62.4882306, -32.7183822], [-62.4882529, -32.7184734], [-62.4896706, -32.7242615], [-62.4938865, -32.7416376], [-62.4942363, -32.7430791], [-62.4969278, -32.753898], [-62.4982578, -32.7595562], [-62.4988588, -32.7619707], [-62.5002713, -32.7678752], [-62.500418, -32.7684763], [-62.5007021, -32.7696551], [-62.5037196, -32.7821742], [-62.5036865, -32.782271], [-62.5036266, -32.7823316], [-62.4926876, -32.7891692], [-62.4865871, -32.763866], [-62.483523, -32.7715832], [-62.4830361, -32.7727247], [-62.4780457, -32.7843829], [-62.4748229, -32.7919961], [-62.4697391, -32.8038932], [-62.4673983, -32.8093791], [-62.4652429, -32.81443], [-62.4610604, -32.8242304], [-62.4547762, -32.8389537], [-62.4511144, -32.8475455], [-62.4510735, -32.8476823], [-62.4510597, -32.8477784], [-62.4510715, -32.8478875], [-62.451116, -32.8479979], [-62.4512945, -32.84836], [-62.4514062, -32.8482754], [-62.4515026, -32.8482379], [-62.4518007, -32.8481855], [-62.4709212, -32.8448273], [-62.4793719, -32.843343], [-62.4979836, -32.840119], [-62.5154473, -32.837082], [-62.5175946, -32.845945], [-62.5234893, -32.8696828], [-62.5249315, -32.8754896], [-62.5256739, -32.8784785], [-62.5304498, -32.8977037], [-62.532139, -32.9045023], [-62.5321956, -32.90473], [-62.5322737, -32.9051379], [-62.5422216, -32.9451481], [-62.5336066, -32.9466715], [-62.5070793, -32.9513583], [-62.5079571, -32.9551847], [-62.5090965, -32.9597063], [-62.5121821, -32.9719491], [-62.5128518, -32.9746063], [-62.5181062, -32.9951831], [-62.5187466, -32.9976906], [-62.5245515, -33.020555], [-62.5263007, -33.0274312], [-62.5299637, -33.0418284], [-62.5300494, -33.0419794], [-62.5303596, -33.0432063], [-62.5318331, -33.0435909], [-62.5342473, -33.0445163], [-62.5366309, -33.0455456], [-62.5369322, -33.0457887], [-62.5377423, -33.0466707], [-62.5386393, -33.0474972], [-62.5396262, -33.0485637], [-62.5403966, -33.0490868], [-62.5410947, -33.0497438], [-62.5433434, -33.0513178], [-62.5452108, -33.052875], [-62.5457096, -33.0533784], [-62.5467864, -33.0548456], [-62.5471206, -33.0551816], [-62.547431, -33.0554376], [-62.5488451, -33.0567306], [-62.5493577, -33.0570105], [-62.5498772, -33.0574441], [-62.5509939, -33.058643], [-62.5518244, -33.0593629], [-62.552305, -33.0599897], [-62.5525659, -33.0602393], [-62.5535148, -33.0607688], [-62.5537522, -33.0609188], [-62.5540003, -33.061186], [-62.5547227, -33.0617927], [-62.5550308, -33.0619501], [-62.5559613, -33.0622301], [-62.5562224, -33.0623535], [-62.5569766, -33.062882], [-62.5573448, -33.0630513], [-62.5586633, -33.0634189], [-62.5589406, -33.0635156], [-62.5595476, -33.0639978], [-62.5599286, -33.0641752], [-62.5602641, -33.064259], [-62.561317, -33.0644244], [-62.5617509, -33.0645808], [-62.5624041, -33.0649523], [-62.5628141, -33.0651147], [-62.5637241, -33.0652702], [-62.5640392, -33.0652809], [-62.5643661, -33.0651861], [-62.5646413, -33.0652018], [-62.5648899, -33.0653264], [-62.5650905, -33.0655222], [-62.5651243, -33.0657474], [-62.565073, -33.0660556], [-62.5650598, -33.0663032], [-62.5651374, -33.0666881], [-62.565276, -33.0669356], [-62.5653949, -33.0670029], [-62.5655551, -33.0670146], [-62.5657863, -33.0669651], [-62.5659796, -33.0669805], [-62.5661482, -33.0670945], [-62.5663357, -33.0672911], [-62.5664201, -33.0675842], [-62.5665416, -33.0678076], [-62.567005, -33.0684575], [-62.5673298, -33.0687955], [-62.5694464, -33.0704521], [-62.5714464, -33.0720376], [-62.5722668, -33.0728542], [-62.5727774, -33.0732728], [-62.5731465, -33.0736337], [-62.5733388, -33.0739682], [-62.5736141, -33.0745286], [-62.5748073, -33.0758629], [-62.5751647, -33.0764359], [-62.5754132, -33.0766517], [-62.5760177, -33.0769467], [-62.5763866, -33.0772598], [-62.5773527, -33.0783878], [-62.5783548, -33.0793767], [-62.5792535, -33.0805828], [-62.5803563, -33.0815449], [-62.5807834, -33.081891], [-62.5818347, -33.0825631], [-62.5825643, -33.0830967], [-62.5833417, -33.0838369], [-62.5848573, -33.0849425], [-62.5855057, -33.0852207], [-62.5864903, -33.0858118], [-62.5888188, -33.0873512], [-62.5896877, -33.0877188], [-62.5903555, -33.0881251], [-62.5907869, -33.0883031], [-62.591128, -33.0885925], [-62.5916494, -33.0892747], [-62.592011, -33.0895153], [-62.5927008, -33.0897493], [-62.5929481, -33.0898008], [-62.5933202, -33.0898], [-62.5935742, -33.0898506], [-62.5941812, -33.0901431], [-62.5943113, -33.0902764], [-62.5945761, -33.09069], [-62.5947683, -33.0908616], [-62.595796, -33.0913441], [-62.5966641, -33.0916163], [-62.596885, -33.091694], [-62.5979635, -33.0924308], [-62.5988227, -33.0927238], [-62.5991213, -33.0928689], [-62.5998524, -33.0935328], [-62.6000704, -33.093651], [-62.6007037, -33.0938247], [-62.6010109, -33.0939226], [-62.6012215, -33.0940631], [-62.6018674, -33.0948044], [-62.6021051, -33.0952069], [-62.6022841, -33.0953928], [-62.6025435, -33.0955317], [-62.6032919, -33.0958062], [-62.6035323, -33.0959544], [-62.6047631, -33.0969516], [-62.6052874, -33.0972336], [-62.6056365, -33.0975213], [-62.6058309, -33.0977208], [-62.606385, -33.0985581], [-62.6066634, -33.0987673], [-62.6075792, -33.0992008], [-62.6080488, -33.0992972], [-62.6086375, -33.0995223], [-62.6091133, -33.0998204], [-62.6100702, -33.1005749], [-62.610746, -33.101285], [-62.6114712, -33.101774], [-62.6122142, -33.1025165], [-62.6123372, -33.102607], [-62.6125413, -33.1026634], [-62.6130809, -33.102658], [-62.6133295, -33.102707], [-62.6138211, -33.1029407], [-62.6143117, -33.1030545], [-62.6152986, -33.1034803], [-62.6163482, -33.1040528], [-62.6168983, -33.1042627], [-62.6172415, -33.1043936], [-62.6187089, -33.1047992], [-62.6198047, -33.1052451], [-62.6202502, -33.1054704], [-62.6208849, -33.105937], [-62.6211181, -33.1061519], [-62.6213296, -33.1062137], [-62.6221398, -33.1062227], [-62.6224361, -33.1063171], [-62.6232989, -33.1068665], [-62.6241056, -33.1072353], [-62.5952331, -33.1126617], [-62.5853465, -33.1144948], [-62.58511, -33.114557], [-62.5848858, -33.1146394], [-62.5845272, -33.1147674], [-62.584268, -33.1148473], [-62.5839194, -33.1149275], [-62.58356, -33.1150027], [-62.5774891, -33.1161059], [-62.5773268, -33.1160319], [-62.5772065, -33.1159949], [-62.5770555, -33.1160091], [-62.5702902, -33.1172986], [-62.5699224, -33.1173658], [-62.5601048, -33.1191601], [-62.5501184, -33.1210182], [-62.5363369, -33.1235823], [-62.5202619, -33.126573], [-62.5267845, -33.1366374], [-62.5398162, -33.1569603], [-62.5434965, -33.1627865], [-62.547188, -33.1685384], [-62.5516229, -33.175454], [-62.5540408, -33.179169], [-62.5573177, -33.1842842], [-62.5576267, -33.1847715], [-62.5589412, -33.1868438], [-62.5615736, -33.1909926], [-62.5660413, -33.1979432], [-62.5736118, -33.2096467], [-62.5742468, -33.2106316], [-62.5744737, -33.2107067], [-62.5747038, -33.2108247], [-62.5749007, -33.2109594], [-62.5755139, -33.2114496], [-62.575715, -33.2116141], [-62.5759681, -33.2118191], [-62.5760765, -33.2118955], [-62.5762005, -33.211979], [-62.5763459, -33.2120694], [-62.5765007, -33.2121544], [-62.5766695, -33.2122467], [-62.5768933, -33.212355], [-62.5770775, -33.2124355], [-62.5772042, -33.2124839], [-62.5774351, -33.212558], [-62.577703, -33.2126165], [-62.5776816, -33.2127409], [-62.5777024, -33.2128279], [-62.577803, -33.212973], [-62.5780242, -33.2131509], [-62.5792325, -33.2139587], [-62.5884346, -33.2200345], [-62.5913032, -33.2219211], [-62.6026752, -33.2294745], [-62.6071134, -33.2324144], [-62.6084272, -33.2332482], [-62.6158075, -33.2380988], [-62.6158837, -33.2381851], [-62.616004, -33.2382824], [-62.6161242, -33.2383797], [-62.6166313, -33.2387079], [-62.6199995, -33.2409328], [-62.6309606, -33.2481731], [-62.6451454, -33.2575542], [-62.6538442, -33.2632466], [-62.6594193, -33.2669389], [-62.6736292, -33.2763227], [-62.6879955, -33.2858338], [-62.6769613, -33.2878712], [-62.6659624, -33.2899021], [-62.6633439, -33.2903856], [-62.6582873, -33.2913614], [-62.6489237, -33.2930586], [-62.6387087, -33.2949242], [-62.6380511, -33.2950512], [-62.6252903, -33.2973847], [-62.6251244, -33.2974154], [-62.6115221, -33.2999301], [-62.6033825, -33.3014314], [-62.6124605, -33.3132617], [-62.6205425, -33.3238343], [-62.6263687, -33.331429], [-62.6280506, -33.3337749], [-62.6285667, -33.334429], [-62.6418775, -33.3519176], [-62.6460653, -33.3584535], [-62.648926, -33.3692448], [-62.6535419, -33.3869062], [-62.6580973, -33.4043325], [-62.6625049, -33.4212234], [-62.6746384, -33.4763422], [-62.6791411, -33.4971654], [-62.683421, -33.5173301], [-62.6859692, -33.5292595], [-62.686101, -33.5292359], [-62.690703, -33.547138], [-62.6953284, -33.5650708], [-62.6999699, -33.5828543], [-62.7030414, -33.5947884], [-62.7031468, -33.5951741], [-62.7032139, -33.5953841], [-62.7032707, -33.5955619], [-62.7035362, -33.596606], [-62.7094937, -33.6200276], [-62.7184084, -33.6558869], [-62.7323642, -33.7119935], [-62.7532991, -33.7832658], [-62.7754956, -33.7793018], [-62.7791923, -33.793669], [-62.7837704, -33.8113963], [-62.7883188, -33.8292162], [-62.7928704, -33.8470474], [-62.7975572, -33.8649177], [-62.8020729, -33.882806], [-62.8042823, -33.8913094], [-62.8053575, -33.8960467]]]}}]}